CCSDS_OMM_VERS = 2.0
CREATION_DATE  = 
ORIGINATOR     = 

OBJECT_NAME    = SL-16 R/B
OBJECT_ID      = 1998-043G
CENTER_NAME    = EARTH
REF_FRAME      = TEME
TIME_SYSTEM    = UTC
MEAN_ELEMENT_THEORY = SGP/SGP4

EPOCH          = 2026-03-01T20:57:33.080256
MEAN_MOTION    = 14.26047685
ECCENTRICITY   = .0010585
INCLINATION    = 98.8241
RA_OF_ASC_NODE = 14.1820
ARG_OF_PERICENTER = 41.8918
MEAN_ANOMALY   = 318.3069

EPHEMERIS_TYPE = 0
CLASSIFICATION_TYPE = U
NORAD_CAT_ID   = 25400
ELEMENT_SET_NO = 999
REV_AT_EPOCH   = 43787
BSTAR          = .48888E-4
MEAN_MOTION_DOT = .72E-6
MEAN_MOTION_DDOT = 0

CCSDS_OMM_VERS = 2.0
CREATION_DATE  = 
ORIGINATOR     = 

OBJECT_NAME    = SL-16 R/B
OBJECT_ID      = 1998-045B
CENTER_NAME    = EARTH
REF_FRAME      = TEME
TIME_SYSTEM    = UTC
MEAN_ELEMENT_THEORY = SGP/SGP4

EPOCH          = 2026-03-01T19:17:05.409312
MEAN_MOTION    = 14.16189940
ECCENTRICITY   = .00062946
INCLINATION    = 71.0109
RA_OF_ASC_NODE = 198.1568
ARG_OF_PERICENTER = 20.3267
MEAN_ANOMALY   = 339.8106

EPHEMERIS_TYPE = 0
CLASSIFICATION_TYPE = U
NORAD_CAT_ID   = 25407
ELEMENT_SET_NO = 999
REV_AT_EPOCH   = 42598
BSTAR          = -.10140731E-3
MEAN_MOTION_DOT = -.249E-5
MEAN_MOTION_DDOT = 0

CCSDS_OMM_VERS = 2.0
CREATION_DATE  = 
ORIGINATOR     = 

OBJECT_NAME    = ISS (ZARYA)
OBJECT_ID      = 1998-067A
CENTER_NAME    = EARTH
REF_FRAME      = TEME
TIME_SYSTEM    = UTC
MEAN_ELEMENT_THEORY = SGP/SGP4

EPOCH          = 2026-03-01T20:00:02.825856
MEAN_MOTION    = 15.48387794
ECCENTRICITY   = .0008284
INCLINATION    = 51.6319
RA_OF_ASC_NODE = 111.1961
ARG_OF_PERICENTER = 147.0223
MEAN_ANOMALY   = 213.1284

EPHEMERIS_TYPE = 0
CLASSIFICATION_TYPE = U
NORAD_CAT_ID   = 25544
ELEMENT_SET_NO = 999
REV_AT_EPOCH   = 55511
BSTAR          = .19089E-3
MEAN_MOTION_DOT = .9867E-4
MEAN_MOTION_DDOT = 0

CCSDS_OMM_VERS = 2.0
CREATION_DATE  = 
ORIGINATOR     = 

OBJECT_NAME    = CZ-4B R/B
OBJECT_ID      = 1999-025C
CENTER_NAME    = EARTH
REF_FRAME      = TEME
TIME_SYSTEM    = UTC
MEAN_ELEMENT_THEORY = SGP/SGP4

EPOCH          = 2026-03-02T02:47:35.321856
MEAN_MOTION    = 14.18263556
ECCENTRICITY   = .0037175
INCLINATION    = 98.6643
RA_OF_ASC_NODE = 105.5769
ARG_OF_PERICENTER = 8.4734
MEAN_ANOMALY   = 50.7208

EPHEMERIS_TYPE = 0
CLASSIFICATION_TYPE = U
NORAD_CAT_ID   = 25732
ELEMENT_SET_NO = 999
REV_AT_EPOCH   = 38709
BSTAR          = .49591E-4
MEAN_MOTION_DOT = .6E-6
MEAN_MOTION_DDOT = 0

CCSDS_OMM_VERS = 2.0
CREATION_DATE  = 
ORIGINATOR     = 

OBJECT_NAME    = OKEAN-O
OBJECT_ID      = 1999-039A
CENTER_NAME    = EARTH
REF_FRAME      = TEME
TIME_SYSTEM    = UTC
MEAN_ELEMENT_THEORY = SGP/SGP4

EPOCH          = 2026-03-02T03:34:39.975456
MEAN_MOTION    = 14.80320975
ECCENTRICITY   = .0001477
INCLINATION    = 97.9459
RA_OF_ASC_NODE = 121.1167
ARG_OF_PERICENTER = 71.6808
MEAN_ANOMALY   = 288.4565

EPHEMERIS_TYPE = 0
CLASSIFICATION_TYPE = U
NORAD_CAT_ID   = 25860
ELEMENT_SET_NO = 999
REV_AT_EPOCH   = 43327
BSTAR          = .10654E-3
MEAN_MOTION_DOT = .76E-5
MEAN_MOTION_DDOT = 0

CCSDS_OMM_VERS = 2.0
CREATION_DATE  = 
ORIGINATOR     = 

OBJECT_NAME    = SL-16 R/B
OBJECT_ID      = 1999-039B
CENTER_NAME    = EARTH
REF_FRAME      = TEME
TIME_SYSTEM    = UTC
MEAN_ELEMENT_THEORY = SGP/SGP4

EPOCH          = 2026-03-02T03:15:54.412416
MEAN_MOTION    = 14.81719006
ECCENTRICITY   = .0013447
INCLINATION    = 97.9982
RA_OF_ASC_NODE = 120.2434
ARG_OF_PERICENTER = 283.2203
MEAN_ANOMALY   = 76.7509

EPHEMERIS_TYPE = 0
CLASSIFICATION_TYPE = U
NORAD_CAT_ID   = 25861
ELEMENT_SET_NO = 999
REV_AT_EPOCH   = 43574
BSTAR          = .92172E-4
MEAN_MOTION_DOT = .673E-5
MEAN_MOTION_DDOT = 0

CCSDS_OMM_VERS = 2.0
CREATION_DATE  = 
ORIGINATOR     = 

OBJECT_NAME    = DELTA 2 R/B
OBJECT_ID      = 1999-041E
CENTER_NAME    = EARTH
REF_FRAME      = TEME
TIME_SYSTEM    = UTC
MEAN_ELEMENT_THEORY = SGP/SGP4

EPOCH          = 2026-03-01T22:30:18.738432
MEAN_MOTION    = 14.11807517
ECCENTRICITY   = .0502307
INCLINATION    = 51.7655
RA_OF_ASC_NODE = 332.2409
ARG_OF_PERICENTER = 325.5447
MEAN_ANOMALY   = 31.3845

EPHEMERIS_TYPE = 0
CLASSIFICATION_TYPE = U
NORAD_CAT_ID   = 25876
ELEMENT_SET_NO = 999
REV_AT_EPOCH   = 36193
BSTAR          = .30521E-3
MEAN_MOTION_DOT = .1663E-4
MEAN_MOTION_DDOT = 0

CCSDS_OMM_VERS = 2.0
CREATION_DATE  = 
ORIGINATOR     = 

OBJECT_NAME    = HELIOS 1B
OBJECT_ID      = 1999-064A
CENTER_NAME    = EARTH
REF_FRAME      = TEME
TIME_SYSTEM    = UTC
MEAN_ELEMENT_THEORY = SGP/SGP4

EPOCH          = 2026-03-01T17:02:19.096800
MEAN_MOTION    = 14.87658510
ECCENTRICITY   = .00025013
INCLINATION    = 98.1705
RA_OF_ASC_NODE = 322.7185
ARG_OF_PERICENTER = 85.6161
MEAN_ANOMALY   = 274.5340

EPHEMERIS_TYPE = 0
CLASSIFICATION_TYPE = U
NORAD_CAT_ID   = 25977
ELEMENT_SET_NO = 999
REV_AT_EPOCH   = 68407
BSTAR          = .22703276E-3
MEAN_MOTION_DOT = .2008E-4
MEAN_MOTION_DDOT = 0

CCSDS_OMM_VERS = 2.0
CREATION_DATE  = 
ORIGINATOR     = 

OBJECT_NAME    = TERRA
OBJECT_ID      = 1999-068A
CENTER_NAME    = EARTH
REF_FRAME      = TEME
TIME_SYSTEM    = UTC
MEAN_ELEMENT_THEORY = SGP/SGP4

EPOCH          = 2026-03-02T04:23:23.955360
MEAN_MOTION    = 14.61005144
ECCENTRICITY   = .0002189
INCLINATION    = 97.9610
RA_OF_ASC_NODE = 114.9039
ARG_OF_PERICENTER = 170.4421
MEAN_ANOMALY   = 257.0733

EPHEMERIS_TYPE = 0
CLASSIFICATION_TYPE = U
NORAD_CAT_ID   = 25994
ELEMENT_SET_NO = 999
REV_AT_EPOCH   = 39398
BSTAR          = .11148E-3
MEAN_MOTION_DOT = .502E-5
MEAN_MOTION_DDOT = 0

CCSDS_OMM_VERS = 2.0
CREATION_DATE  = 
ORIGINATOR     = 

OBJECT_NAME    = SL-16 R/B
OBJECT_ID      = 2000-006B
CENTER_NAME    = EARTH
REF_FRAME      = TEME
TIME_SYSTEM    = UTC
MEAN_ELEMENT_THEORY = SGP/SGP4

EPOCH          = 2026-03-02T04:05:03.001632
MEAN_MOTION    = 14.15823591
ECCENTRICITY   = .0017273
INCLINATION    = 71.0013
RA_OF_ASC_NODE = 113.6495
ARG_OF_PERICENTER = 200.4902
MEAN_ANOMALY   = 159.5530

EPHEMERIS_TYPE = 0
CLASSIFICATION_TYPE = U
NORAD_CAT_ID   = 26070
ELEMENT_SET_NO = 999
REV_AT_EPOCH   = 34749
BSTAR          = .15959E-3
MEAN_MOTION_DOT = .266E-5
MEAN_MOTION_DDOT = 0

CCSDS_OMM_VERS = 2.0
CREATION_DATE  = 
ORIGINATOR     = 

OBJECT_NAME    = TITAN 4B R/B
OBJECT_ID      = 2000-047B
CENTER_NAME    = EARTH
REF_FRAME      = TEME
TIME_SYSTEM    = UTC
MEAN_ELEMENT_THEORY = SGP/SGP4

EPOCH          = 2026-03-02T03:25:48.486720
MEAN_MOTION    = 15.09474526
ECCENTRICITY   = .0037874
INCLINATION    = 67.9881
RA_OF_ASC_NODE = 61.7303
ARG_OF_PERICENTER = 44.4245
MEAN_ANOMALY   = 315.9931

EPHEMERIS_TYPE = 0
CLASSIFICATION_TYPE = U
NORAD_CAT_ID   = 26474
ELEMENT_SET_NO = 999
REV_AT_EPOCH   = 39177
BSTAR          = .29659E-3
MEAN_MOTION_DOT = .4708E-4
MEAN_MOTION_DDOT = 0

CCSDS_OMM_VERS = 2.0
CREATION_DATE  = 
ORIGINATOR     = 

OBJECT_NAME    = ENVISAT
OBJECT_ID      = 2002-009A
CENTER_NAME    = EARTH
REF_FRAME      = TEME
TIME_SYSTEM    = UTC
MEAN_ELEMENT_THEORY = SGP/SGP4

EPOCH          = 2026-03-02T03:53:55.094208
MEAN_MOTION    = 14.39033537
ECCENTRICITY   = .0001351
INCLINATION    = 98.3715
RA_OF_ASC_NODE = 14.9396
ARG_OF_PERICENTER = 85.3481
MEAN_ANOMALY   = 285.4162

EPHEMERIS_TYPE = 0
CLASSIFICATION_TYPE = U
NORAD_CAT_ID   = 27386
ELEMENT_SET_NO = 999
REV_AT_EPOCH   = 25809
BSTAR          = .59019E-4
MEAN_MOTION_DOT = .139E-5
MEAN_MOTION_DDOT = 0

