SL-16 R/B               
1 25400U 98043G   26060.87329954  .00000072  00000+0  48888-4 0  9994
2 25400  98.8241  14.1820 0010585  41.8918 318.3069 14.26047685437873
SL-16 R/B               
1 25407U 98045B   26060.80353483 -.00000249  00000+0 -10141-3 0  9998
2 25407  71.0109 198.1568 0006294  20.3267 339.8106 14.16189940425988
ISS (ZARYA)             
1 25544U 98067A   26060.83336604  .00009867  00000+0  19089-3 0  9996
2 25544  51.6319 111.1961 0008284 147.0223 213.1284 15.48387794555112
CZ-4B R/B               
1 25732U 99025C   26061.11638104  .00000060  00000+0  49591-4 0  9990
2 25732  98.6643 105.5769 0037175   8.4734  50.7208 14.18263556387099
OKEAN-O                 
1 25860U 99039A   26061.14907379  .00000760  00000+0  10654-3 0  9997
2 25860  97.9459 121.1167 0001477  71.6808 288.4565 14.80320975433270
SL-16 R/B               
1 25861U 99039B   26061.13604644  .00000673  00000+0  92172-4 0  9995
2 25861  97.9982 120.2434 0013447 283.2203  76.7509 14.81719006435747
DELTA 2 R/B             
1 25876U 99041E   26060.93771688  .00001663  00000+0  30521-3 0  9993
2 25876  51.7655 332.2409 0502307 325.5447  31.3845 14.11807517361930
HELIOS 1B               
1 25977U 99064A   26060.70994325  .00002008  00000+0  22703-3 0  9997
2 25977  98.1705 322.7185 0002501  85.6161 274.5340 14.87658510684070
TERRA                   
1 25994U 99068A   26061.18291615  .00000502  00000+0  11148-3 0  9993
2 25994  97.9610 114.9039 0002189 170.4421 257.0733 14.61005144393984
SL-16 R/B               
1 26070U 00006B   26061.17017363  .00000266  00000+0  15959-3 0  9999
2 26070  71.0013 113.6495 0017273 200.4902 159.5530 14.15823591347499
TITAN 4B R/B            
1 26474U 00047B   26061.14292230  .00004708  00000+0  29659-3 0  9994
2 26474  67.9881  61.7303 0037874  44.4245 315.9931 15.09474526391777
ENVISAT                 
1 27386U 02009A   26061.16244322  .00000139  00000+0  59019-4 0  9996
2 27386  98.3715  14.9396 0001351  85.3481 285.4162 14.39033537258092
